{"fetched_at":"2026-07-23T07:06:10.583Z","source":"https://celestrak.org/NORAD/elements/gp.php?NAME=WORLDVIEW&FORMAT=JSON","constellation":"worldview","records":[{"OBJECT_NAME":"WORLDVIEW-1 (WV-1)","OBJECT_ID":"2007-041A","EPOCH":"2026-07-22T16:07:13.714464","CLASSIFICATION_TYPE":"U","MEAN_MOTION":15.24617597,"ECCENTRICITY":0.00022481,"INCLINATION":97.3901,"RA_OF_ASC_NODE":322.9209,"ARG_OF_PERICENTER":177.8116,"MEAN_ANOMALY":182.3132,"EPHEMERIS_TYPE":0,"NORAD_CAT_ID":32060,"ELEMENT_SET_NO":999,"REV_AT_EPOCH":4828,"BSTAR":0.00025213571,"MEAN_MOTION_DOT":0.0000615,"MEAN_MOTION_DDOT":0},{"OBJECT_NAME":"WORLDVIEW-2 (WV-2)","OBJECT_ID":"2009-055A","EPOCH":"2026-07-22T22:20:30.918624","CLASSIFICATION_TYPE":"U","MEAN_MOTION":14.3790848,"ECCENTRICITY":0.00055394,"INCLINATION":98.475,"RA_OF_ASC_NODE":276.8937,"ARG_OF_PERICENTER":111.4753,"MEAN_ANOMALY":248.7025,"EPHEMERIS_TYPE":0,"NORAD_CAT_ID":35946,"ELEMENT_SET_NO":999,"REV_AT_EPOCH":88078,"BSTAR":0.00003659966,"MEAN_MOTION_DOT":6.7e-7,"MEAN_MOTION_DDOT":0},{"OBJECT_NAME":"WORLDVIEW-3 (WV-3)","OBJECT_ID":"2014-048A","EPOCH":"2026-07-22T22:41:45.259872","CLASSIFICATION_TYPE":"U","MEAN_MOTION":14.85072929,"ECCENTRICITY":0.00018485,"INCLINATION":97.855,"RA_OF_ASC_NODE":278.2828,"ARG_OF_PERICENTER":143.8996,"MEAN_ANOMALY":216.2344,"EPHEMERIS_TYPE":0,"NORAD_CAT_ID":40115,"ELEMENT_SET_NO":999,"REV_AT_EPOCH":64721,"BSTAR":0.000080347864,"MEAN_MOTION_DOT":0.00000633,"MEAN_MOTION_DDOT":0}]}
